{
  "norad_id": 53833,
  "name": "STARLINK-4771",
  "history": [
    {
      "epoch": "2026-04-18T18:26:23.768160Z",
      "apogee_km": 540.6327658861728,
      "perigee_km": 538.7691003469909,
      "latitude_deg": -5.8709217084840626e-05,
      "longitude_deg": 0.5966340890585963,
      "height_km": 540.3938079493572,
      "semi_major_axis_km": 6917.837933116582,
      "eccentricity": 0.0001347,
      "inclination_deg": 53.2166,
      "raan_deg": 124.0783,
      "arg_perigee_deg": 77.4281,
      "mean_anomaly_deg": 282.6861,
      "mean_motion_rev_day": 15.0885389
    },
    {
      "epoch": "2026-04-19T18:17:10.076352Z",
      "apogee_km": 540.3696663287064,
      "perigee_km": 539.0386736875971,
      "latitude_deg": -8.775503554339597e-06,
      "longitude_deg": -2.537909043640209,
      "height_km": 540.5566448158454,
      "semi_major_axis_km": 6917.8411700081515,
      "eccentricity": 9.62e-05,
      "inclination_deg": 53.2161,
      "raan_deg": 119.616,
      "arg_perigee_deg": 86.2398,
      "mean_anomaly_deg": 273.8704,
      "mean_motion_rev_day": 15.08852831
    },
    {
      "epoch": "2026-04-20T07:00:16.189056Z",
      "apogee_km": 540.8226027613964,
      "perigee_km": 538.6642240724104,
      "latitude_deg": -3.811225629002064e-05,
      "longitude_deg": 163.7854739219528,
      "height_km": 540.5681573318701,
      "semi_major_axis_km": 6917.880413416903,
      "eccentricity": 0.000156,
      "inclination_deg": 53.2158,
      "raan_deg": 117.2372,
      "arg_perigee_deg": 86.2531,
      "mean_anomaly_deg": 273.8639,
      "mean_motion_rev_day": 15.08839992
    },
    {
      "epoch": "2026-04-21T06:51:03.103776Z",
      "apogee_km": 540.5738784255973,
      "perigee_km": 538.9003063251703,
      "latitude_deg": -1.131365950735553e-05,
      "longitude_deg": 160.6521781155203,
      "height_km": 540.4733169319568,
      "semi_major_axis_km": 6917.874092375383,
      "eccentricity": 0.00012096,
      "inclination_deg": 53.2161,
      "raan_deg": 112.7787,
      "arg_perigee_deg": 79.0056,
      "mean_anomaly_deg": 281.1072,
      "mean_motion_rev_day": 15.0884206
    },
    {
      "epoch": "2026-04-22T16:14:09.231072Z",
      "apogee_km": 540.5246505760169,
      "perigee_km": 538.9985621434535,
      "latitude_deg": -2.915165299666041e-05,
      "longitude_deg": 12.260756254139183,
      "height_km": 540.4895129267728,
      "semi_major_axis_km": 6917.898606359735,
      "eccentricity": 0.0001103,
      "inclination_deg": 53.2163,
      "raan_deg": 106.5339,
      "arg_perigee_deg": 77.2751,
      "mean_anomaly_deg": 282.8364,
      "mean_motion_rev_day": 15.0883404
    },
    {
      "epoch": "2026-04-23T08:08:00.542688Z",
      "apogee_km": 540.5586763787633,
      "perigee_km": 538.9393376222451,
      "latitude_deg": -3.781028046585239e-05,
      "longitude_deg": 130.1703593473237,
      "height_km": 540.4825551768956,
      "semi_major_axis_km": 6917.886007000504,
      "eccentricity": 0.00011704,
      "inclination_deg": 53.2163,
      "raan_deg": 103.5602,
      "arg_perigee_deg": 78.4336,
      "mean_anomaly_deg": 281.6787,
      "mean_motion_rev_day": 15.08838162
    },
    {
      "epoch": "2026-04-24T09:34:11.193024Z",
      "apogee_km": 540.6294139624579,
      "perigee_km": 538.8750372548429,
      "latitude_deg": -2.7618182299203757e-05,
      "longitude_deg": 102.82335760828113,
      "height_km": 540.4430422219585,
      "semi_major_axis_km": 6917.88922560865,
      "eccentricity": 0.0001268,
      "inclination_deg": 53.2162,
      "raan_deg": 98.8022,
      "arg_perigee_deg": 76.4887,
      "mean_anomaly_deg": 283.6246,
      "mean_motion_rev_day": 15.08837109
    },
    {
      "epoch": "2026-04-25T15:46:30.556704Z",
      "apogee_km": 540.6250540235378,
      "perigee_km": 538.8623780170965,
      "latitude_deg": -1.966536040108218e-07,
      "longitude_deg": 2.852204589052455,
      "height_km": 540.4915196468318,
      "semi_major_axis_km": 6917.880716020317,
      "eccentricity": 0.0001274,
      "inclination_deg": 53.2168,
      "raan_deg": 93.1522,
      "arg_perigee_deg": 80.3337,
      "mean_anomaly_deg": 279.7799,
      "mean_motion_rev_day": 15.08839893
    },
    {
      "epoch": "2026-04-26T15:37:17.514624Z",
      "apogee_km": 540.6252310202108,
      "perigee_km": 538.8471992464574,
      "latitude_deg": -1.8314506280688496e-05,
      "longitude_deg": -0.28320245286078216,
      "height_km": 540.4816066224718,
      "semi_major_axis_km": 6917.873215133334,
      "eccentricity": 0.00012851,
      "inclination_deg": 53.217,
      "raan_deg": 88.6918,
      "arg_perigee_deg": 80.2596,
      "mean_anomaly_deg": 279.8541,
      "mean_motion_rev_day": 15.08842347
    },
    {
      "epoch": "2026-04-27T15:28:04.773216Z",
      "apogee_km": 540.6744849453898,
      "perigee_km": 538.8149583386121,
      "latitude_deg": 4.311572741636807e-06,
      "longitude_deg": -3.4204350485762616,
      "height_km": 540.5263631049211,
      "semi_major_axis_km": 6917.881721642,
      "eccentricity": 0.0001344,
      "inclination_deg": 53.2172,
      "raan_deg": 84.2308,
      "arg_perigee_deg": 82.9521,
      "mean_anomaly_deg": 277.1624,
      "mean_motion_rev_day": 15.08839564
    }
  ]
}